start=new Date('2021-12-12T00:00:00.000Z').valueOf();
sats=[{"SITE":"AFETR","LAUNCH_DATE":"2020-10-06","RA_OF_ASC_NODE":"289.4343","CLASSIFICATION_TYPE":"U","NORAD_CAT_ID":"46548","COUNTRY_CODE":"US","OBJECT_TYPE":"PAYLOAD","MEAN_ANOMALY":"309.1643","DECAY_DATE":null,"APOAPSIS":"548.969","SEMIMAJOR_AXIS":"6925.343","MEAN_MOTION":"15.06401926","ELEMENT_SET_NO":"999","CENTER_NAME":"EARTH","OBJECT_ID":"2020-070S","OBJECT_NAME":"STARLINK-1699","PERIAPSIS":"545.447","ARG_OF_PERICENTER":"50.9572","RCS_SIZE":"LARGE","INCLINATION":"53.0545","PERIOD":"95.592","MEAN_MOTION_DDOT":"0.0000000000000","REF_FRAME":"TEME","TLE_LINE1":"1 46548U 20070S   21345.89629091  .00001138  00000-0  95282-4 0  9998","EPOCH":"2021-12-11T21:30:39.534624","EPHEMERIS_TYPE":"0","FILE":"3237650","GP_ID":"191521745","REV_AT_EPOCH":"6606","MEAN_MOTION_DOT":"0.00001138","TLE_LINE2":"2 46548  53.0545 289.4343 0002543  50.9572 309.1643 15.06401926 66064","ECCENTRICITY":"0.00025430","TIME_SYSTEM":"UTC","MEAN_ELEMENT_THEORY":"SGP4","BSTAR":"0.00009528200000"},{"EPOCH":"2021-12-11T20:37:35.464800","EPHEMERIS_TYPE":"0","FILE":"3237650","GP_ID":"191521995","REV_AT_EPOCH":"6605","MEAN_MOTION_DOT":"0.00000116","TIME_SYSTEM":"UTC","MEAN_ELEMENT_THEORY":"SGP4","BSTAR":"0.00002673100000","TLE_LINE2":"2 46549  53.0542 289.5916 0002229  59.3181 300.8028 15.06394899 66053","ECCENTRICITY":"0.00022290","PERIAPSIS":"545.686","OBJECT_NAME":"STARLINK-1700","INCLINATION":"53.0542","ARG_OF_PERICENTER":"59.3181","RCS_SIZE":"LARGE","REF_FRAME":"TEME","PERIOD":"95.592","MEAN_MOTION_DDOT":"0.0000000000000","TLE_LINE1":"1 46549U 20070T   21345.85943825  .00000116  00000-0  26731-4 0  9997","MEAN_ANOMALY":"300.8028","SEMIMAJOR_AXIS":"6925.364","DECAY_DATE":null,"APOAPSIS":"548.773","CENTER_NAME":"EARTH","OBJECT_ID":"2020-070T","ELEMENT_SET_NO":"999","MEAN_MOTION":"15.06394899","SITE":"AFETR","LAUNCH_DATE":"2020-10-06","RA_OF_ASC_NODE":"289.5916","CLASSIFICATION_TYPE":"U","NORAD_CAT_ID":"46549","COUNTRY_CODE":"US","OBJECT_TYPE":"PAYLOAD"},{"OBJECT_NAME":"STARLINK-1701","PERIAPSIS":"545.891","ARG_OF_PERICENTER":"60.3559","RCS_SIZE":"LARGE","INCLINATION":"53.0550","PERIOD":"95.592","MEAN_MOTION_DDOT":"0.0000000000000","REF_FRAME":"TEME","TLE_LINE1":"1 46550U 20070U   21345.57930428  .00001103  00000-0  92928-4 0  9991","EPOCH":"2021-12-11T13:54:11.889792","EPHEMERIS_TYPE":"0","FILE":"3237650","GP_ID":"191522254","MEAN_MOTION_DOT":"0.00001103","REV_AT_EPOCH":"6601","TLE_LINE2":"2 46550  53.0550 290.8473 0001918  60.3559 299.7621 15.06398193 66014","ECCENTRICITY":"0.00019180","TIME_SYSTEM":"UTC","MEAN_ELEMENT_THEORY":"SGP4","BSTAR":"0.00009292800000","SITE":"AFETR","LAUNCH_DATE":"2020-10-06","RA_OF_ASC_NODE":"290.8473","CLASSIFICATION_TYPE":"U","NORAD_CAT_ID":"46550","COUNTRY_CODE":"US","OBJECT_TYPE":"PAYLOAD","MEAN_ANOMALY":"299.7621","DECAY_DATE":null,"APOAPSIS":"548.547","SEMIMAJOR_AXIS":"6925.354","MEAN_MOTION":"15.06398193","ELEMENT_SET_NO":"999","OBJECT_ID":"2020-070U","CENTER_NAME":"EARTH"},{"MEAN_ANOMALY":"300.1607","SEMIMAJOR_AXIS":"6925.350","APOAPSIS":"548.713","DECAY_DATE":null,"OBJECT_ID":"2020-070W","CENTER_NAME":"EARTH","MEAN_MOTION":"15.06399440","ELEMENT_SET_NO":"999","LAUNCH_DATE":"2020-10-06","SITE":"AFETR","CLASSIFICATION_TYPE":"U","RA_OF_ASC_NODE":"274.8371","NORAD_CAT_ID":"46552","OBJECT_TYPE":"PAYLOAD","COUNTRY_CODE":"US","EPHEMERIS_TYPE":"0","FILE":"3237650","EPOCH":"2021-12-11T19:17:18.643200","GP_ID":"191522997","REV_AT_EPOCH":"6626","MEAN_MOTION_DOT":"0.00001031","BSTAR":"0.00008811400000","MEAN_ELEMENT_THEORY":"SGP4","TIME_SYSTEM":"UTC","ECCENTRICITY":"0.00021630","TLE_LINE2":"2 46552  53.0542 274.8371 0002163  59.9596 300.1607 15.06399440 66268","PERIAPSIS":"545.717","OBJECT_NAME":"STARLINK-1649","INCLINATION":"53.0542","RCS_SIZE":"LARGE","ARG_OF_PERICENTER":"59.9596","REF_FRAME":"TEME","MEAN_MOTION_DDOT":"0.0000000000000","PERIOD":"95.592","TLE_LINE1":"1 46552U 20070W   21345.80368800  .00001031  00000-0  88114-4 0  9990"},{"OBJECT_TYPE":"PAYLOAD","COUNTRY_CODE":"US","NORAD_CAT_ID":"46553","CLASSIFICATION_TYPE":"U","RA_OF_ASC_NODE":"259.4193","LAUNCH_DATE":"2020-10-06","SITE":"AFETR","OBJECT_ID":"2020-070X","CENTER_NAME":"EARTH","MEAN_MOTION":"15.06393009","ELEMENT_SET_NO":"999","SEMIMAJOR_AXIS":"6925.370","APOAPSIS":"548.805","DECAY_DATE":null,"MEAN_ANOMALY":"297.4106","TLE_LINE1":"1 46553U 20070X   21345.89812487  .00000913  00000-0  80194-4 0  9993","REF_FRAME":"TEME","MEAN_MOTION_DDOT":"0.0000000000000","PERIOD":"95.593","INCLINATION":"53.0543","RCS_SIZE":"LARGE","ARG_OF_PERICENTER":"62.7114","PERIAPSIS":"545.665","OBJECT_NAME":"STARLINK-1664","BSTAR":"0.00008019400000","MEAN_ELEMENT_THEORY":"SGP4","TIME_SYSTEM":"UTC","ECCENTRICITY":"0.00022670","TLE_LINE2":"2 46553  53.0543 259.4193 0002267  62.7114 297.4106 15.06393009 66485","REV_AT_EPOCH":"6648","MEAN_MOTION_DOT":"0.00000913","GP_ID":"191521253","FILE":"3237650","EPHEMERIS_TYPE":"0","EPOCH":"2021-12-11T21:33:17.988768"},{"NORAD_CAT_ID":"46554","COUNTRY_CODE":"US","OBJECT_TYPE":"PAYLOAD","SITE":"AFETR","LAUNCH_DATE":"2020-10-06","RA_OF_ASC_NODE":"274.1786","CLASSIFICATION_TYPE":"U","OBJECT_ID":"2020-070Y","CENTER_NAME":"EARTH","MEAN_MOTION":"15.06397542","ELEMENT_SET_NO":"999","MEAN_ANOMALY":"296.5366","SEMIMAJOR_AXIS":"6925.356","DECAY_DATE":null,"APOAPSIS":"548.918","REF_FRAME":"TEME","PERIOD":"95.592","MEAN_MOTION_DDOT":"0.0000000000000","TLE_LINE1":"1 46554U 20070Y   21345.95112273 -.00000867  00000-0 -39296-4 0  9994","PERIAPSIS":"545.524","OBJECT_NAME":"STARLINK-1671","INCLINATION":"53.0542","ARG_OF_PERICENTER":"63.5874","RCS_SIZE":"LARGE","REV_AT_EPOCH":"6628","MEAN_MOTION_DOT":"-0.00000867","TIME_SYSTEM":"UTC","MEAN_ELEMENT_THEORY":"SGP4","BSTAR":"-0.00003929600000","TLE_LINE2":"2 46554  53.0542 274.1786 0002451  63.5874 296.5366 15.06397542 66286","ECCENTRICITY":"0.00024510","EPOCH":"2021-12-11T22:49:37.003872","EPHEMERIS_TYPE":"0","FILE":"3237650","GP_ID":"191521503"},{"GP_ID":"191500362","EPOCH":"2021-12-12T01:03:43.587936","FILE":"3237646","EPHEMERIS_TYPE":"0","TIME_SYSTEM":"UTC","BSTAR":"0.00296520000000","MEAN_ELEMENT_THEORY":"SGP4","TLE_LINE2":"2 46555  53.0348 203.0766 0006543 254.4871 105.8089 16.22415374 67282","ECCENTRICITY":"0.00065430","REV_AT_EPOCH":"6728","MEAN_MOTION_DOT":"0.07167174","INCLINATION":"53.0348","ARG_OF_PERICENTER":"254.4871","RCS_SIZE":"LARGE","PERIAPSIS":"208.691","OBJECT_NAME":"STARLINK-1674","TLE_LINE1":"1 46555U 20070Z   21346.04425449  .07167174  11861-4  29652-2 0  9992","REF_FRAME":"TEME","PERIOD":"88.757","MEAN_MOTION_DDOT":"0.0000118610000","SEMIMAJOR_AXIS":"6591.139","DECAY_DATE":null,"APOAPSIS":"217.317","MEAN_ANOMALY":"105.8089","OBJECT_ID":"2020-070Z","CENTER_NAME":"EARTH","MEAN_MOTION":"16.22415374","ELEMENT_SET_NO":"999","RA_OF_ASC_NODE":"203.0766","CLASSIFICATION_TYPE":"U","SITE":"AFETR","LAUNCH_DATE":"2020-10-06","COUNTRY_CODE":"US","OBJECT_TYPE":"PAYLOAD","NORAD_CAT_ID":"46555"},{"FILE":"3237650","EPHEMERIS_TYPE":"0","EPOCH":"2021-12-11T16:17:29.948640","GP_ID":"191522505","MEAN_MOTION_DOT":"0.00001271","REV_AT_EPOCH":"6603","MEAN_ELEMENT_THEORY":"SGP4","BSTAR":"0.00010424000000","TIME_SYSTEM":"UTC","ECCENTRICITY":"0.00020810","TLE_LINE2":"2 46556  53.0557 290.4075 0002081  56.8359 303.2830 15.06401513 66037","PERIAPSIS":"545.768","OBJECT_NAME":"STARLINK-1676","INCLINATION":"53.0557","RCS_SIZE":"LARGE","ARG_OF_PERICENTER":"56.8359","REF_FRAME":"TEME","MEAN_MOTION_DDOT":"0.0000000000000","PERIOD":"95.592","TLE_LINE1":"1 46556U 20070AA  21345.67881885  .00001271  00000-0  10424-3 0  9996","MEAN_ANOMALY":"303.2830","SEMIMAJOR_AXIS":"6925.344","APOAPSIS":"548.650","DECAY_DATE":null,"CENTER_NAME":"EARTH","OBJECT_ID":"2020-070AA","ELEMENT_SET_NO":"999","MEAN_MOTION":"15.06401513","LAUNCH_DATE":"2020-10-06","SITE":"AFETR","CLASSIFICATION_TYPE":"U","RA_OF_ASC_NODE":"290.4075","NORAD_CAT_ID":"46556","OBJECT_TYPE":"PAYLOAD","COUNTRY_CODE":"US"},{"CENTER_NAME":"EARTH","OBJECT_ID":"2020-070AB","ELEMENT_SET_NO":"999","MEAN_MOTION":"15.06389363","MEAN_ANOMALY":"300.1322","SEMIMAJOR_AXIS":"6925.381","DECAY_DATE":null,"APOAPSIS":"548.839","NORAD_CAT_ID":"46557","COUNTRY_CODE":"US","OBJECT_TYPE":"PAYLOAD","SITE":"AFETR","LAUNCH_DATE":"2020-10-06","RA_OF_ASC_NODE":"274.9073","CLASSIFICATION_TYPE":"U","MEAN_MOTION_DOT":"0.00000225","REV_AT_EPOCH":"6626","TIME_SYSTEM":"UTC","MEAN_ELEMENT_THEORY":"SGP4","BSTAR":"0.00003401400000","TLE_LINE2":"2 46557  53.0551 274.9073 0002300  59.9895 300.1322 15.06389363 66265","ECCENTRICITY":"0.00023000","EPOCH":"2021-12-11T18:56:05.326656","FILE":"3237650","EPHEMERIS_TYPE":"0","GP_ID":"191521746","REF_FRAME":"TEME","PERIOD":"95.593","MEAN_MOTION_DDOT":"0.0000000000000","TLE_LINE1":"1 46557U 20070AB  21345.78895054  .00000225  00000-0  34014-4 0  9992","PERIAPSIS":"545.653","OBJECT_NAME":"STARLINK-1679","INCLINATION":"53.0551","ARG_OF_PERICENTER":"59.9895","RCS_SIZE":"LARGE"},{"ELEMENT_SET_NO":"999","MEAN_MOTION":"15.06388180","OBJECT_ID":"2020-070AC","CENTER_NAME":"EARTH","MEAN_ANOMALY":"297.7196","APOAPSIS":"548.658","DECAY_DATE":null,"SEMIMAJOR_AXIS":"6925.385","NORAD_CAT_ID":"46558","OBJECT_TYPE":"PAYLOAD","COUNTRY_CODE":"US","LAUNCH_DATE":"2020-10-06","SITE":"AFETR","CLASSIFICATION_TYPE":"U","RA_OF_ASC_NODE":"276.0635","MEAN_MOTION_DOT":"0.00000843","REV_AT_EPOCH":"6619","ECCENTRICITY":"0.00020330","TLE_LINE2":"2 46558  53.0540 276.0635 0002033  62.3999 297.7196 15.06388180 66195","BSTAR":"0.00007555300000","MEAN_ELEMENT_THEORY":"SGP4","TIME_SYSTEM":"UTC","EPHEMERIS_TYPE":"0","FILE":"3237453","EPOCH":"2021-12-11T12:44:33.066528","GP_ID":"191494268","MEAN_MOTION_DDOT":"0.0000000000000","PERIOD":"95.593","REF_FRAME":"TEME","TLE_LINE1":"1 46558U 20070AC  21345.53093827  .00000843  00000-0  75553-4 0  9993","OBJECT_NAME":"STARLINK-1680","PERIAPSIS":"545.842","RCS_SIZE":"LARGE","ARG_OF_PERICENTER":"62.3999","INCLINATION":"53.0540"}];
